BOTAN                   
1 65942U 98067XP  25305.54523315  .00066684  00000+0  10070-2 0  9998
2 65942  51.6331 345.9591 0004625   5.6465 354.4577 15.54095782  3448
E-KAGAKU-1              
1 65943U 98067XQ  25305.48643289  .00048933  00000+0  76576-3 0  9996
2 65943  51.6344 346.3156 0004407 355.0444   5.0502 15.53246328  3431
2025-226D               
1 65944U 25226D   25307.78380767  .01234163  00000+0  26600-1 0  9992
2 65944  97.6586  22.4130 0020237 274.1815  85.7118 15.41492758  3598
SHIYAN-31               
1 65945U 25227A   25307.78648601  .00009834  00000+0  44984-3 0  9999
2 65945  80.0037  73.6532 0011460 197.8952 162.1873 15.20384891  3257
CZ-2D R/B               
1 65946U 25227B   25307.81944872  .00011236  00000+0  41431-3 0  9996
2 65946  80.1551  73.9142 0021341 324.5401  35.4410 15.27478505  3271
KUIPER-00101            
1 65947U 25228A   25307.78763492  .00037736  00000+0  11046-2 0  9992
2 65947  51.8796 208.2289 0005653 208.8988 151.1685 15.34861655  4434
KUIPER-00113            
1 65948U 25228B   25307.78417984  .00019440  00000+0  57123-3 0  9994
2 65948  51.8806 208.2089 0006229 204.6248 155.4441 15.35112347  4433
KUIPER-00117            
1 65949U 25228C   25307.78475662  .00016125  00000+0  47665-3 0  9999
2 65949  51.8805 208.2127 0005985 204.9263 155.1435 15.35064186  4431
KUIPER-00121            
1 65950U 25228D   25307.79285931  .00025844  00000+0  77023-3 0  9999
2 65950  51.8811 208.2686 0005582 223.5138 136.5408 15.34490470  4432
KUIPER-00122            
1 65951U 25228E   25307.83336806 -.00753756  00000+0 -26660-1 0  9994
2 65951  51.8818 208.1503 0006853 235.1192 314.2912 15.30933258  3063
KUIPER-00123            
1 65952U 25228F   25307.83336806  .00017094  00000+0  59703-3 0  9997
2 65952  51.8817 208.1242 0004980 227.2790 321.3417 15.29665242  1361
KUIPER-00124            
1 65953U 25228G   25307.79518190  .00028983  00000+0  86720-3 0  9999
2 65953  51.8806 208.2814 0005553 231.4696 128.5792 15.34302843  4430
