CCSDS_OMM_VERS = 2.0
CREATION_DATE  = 
ORIGINATOR     = 

OBJECT_NAME    = BOTAN
OBJECT_ID      = 1998-067XP
CENTER_NAME    = EARTH
REF_FRAME      = TEME
TIME_SYSTEM    = UTC
MEAN_ELEMENT_THEORY = SGP/SGP4

EPOCH          = 2025-11-01T13:05:08.144160
MEAN_MOTION    = 15.54095782
ECCENTRICITY   = .00046258
INCLINATION    = 51.6331
RA_OF_ASC_NODE = 345.9591
ARG_OF_PERICENTER = 5.6465
MEAN_ANOMALY   = 354.4577

EPHEMERIS_TYPE = 0
CLASSIFICATION_TYPE = U
NORAD_CAT_ID   = 65942
ELEMENT_SET_NO = 999
REV_AT_EPOCH   = 344
BSTAR          = .10070176E-2
MEAN_MOTION_DOT = .66684E-3
MEAN_MOTION_DDOT = 0

CCSDS_OMM_VERS = 2.0
CREATION_DATE  = 
ORIGINATOR     = 

OBJECT_NAME    = E-KAGAKU-1
OBJECT_ID      = 1998-067XQ
CENTER_NAME    = EARTH
REF_FRAME      = TEME
TIME_SYSTEM    = UTC
MEAN_ELEMENT_THEORY = SGP/SGP4

EPOCH          = 2025-11-01T11:40:27.801696
MEAN_MOTION    = 15.53246328
ECCENTRICITY   = .00044075
INCLINATION    = 51.6344
RA_OF_ASC_NODE = 346.3156
ARG_OF_PERICENTER = 355.0444
MEAN_ANOMALY   = 5.0502

EPHEMERIS_TYPE = 0
CLASSIFICATION_TYPE = U
NORAD_CAT_ID   = 65943
ELEMENT_SET_NO = 999
REV_AT_EPOCH   = 343
BSTAR          = .76576249E-3
MEAN_MOTION_DOT = .48933E-3
MEAN_MOTION_DDOT = 0

CCSDS_OMM_VERS = 2.0
CREATION_DATE  = 
ORIGINATOR     = 

OBJECT_NAME    = 2025-226D
OBJECT_ID      = 2025-226D
CENTER_NAME    = EARTH
REF_FRAME      = TEME
TIME_SYSTEM    = UTC
MEAN_ELEMENT_THEORY = SGP/SGP4

EPOCH          = 2025-11-03T18:48:40.982688
MEAN_MOTION    = 15.41492758
ECCENTRICITY   = .0020237
INCLINATION    = 97.6586
RA_OF_ASC_NODE = 22.4130
ARG_OF_PERICENTER = 274.1815
MEAN_ANOMALY   = 85.7118

EPHEMERIS_TYPE = 0
CLASSIFICATION_TYPE = U
NORAD_CAT_ID   = 65944
ELEMENT_SET_NO = 999
REV_AT_EPOCH   = 359
BSTAR          = .266E-1
MEAN_MOTION_DOT = .1234163E-1
MEAN_MOTION_DDOT = 0

CCSDS_OMM_VERS = 2.0
CREATION_DATE  = 
ORIGINATOR     = 

OBJECT_NAME    = SHIYAN-31
OBJECT_ID      = 2025-227A
CENTER_NAME    = EARTH
REF_FRAME      = TEME
TIME_SYSTEM    = UTC
MEAN_ELEMENT_THEORY = SGP/SGP4

EPOCH          = 2025-11-03T18:52:32.391264
MEAN_MOTION    = 15.20384891
ECCENTRICITY   = .001146
INCLINATION    = 80.0037
RA_OF_ASC_NODE = 73.6532
ARG_OF_PERICENTER = 197.8952
MEAN_ANOMALY   = 162.1873

EPHEMERIS_TYPE = 0
CLASSIFICATION_TYPE = U
NORAD_CAT_ID   = 65945
ELEMENT_SET_NO = 999
REV_AT_EPOCH   = 325
BSTAR          = .44984E-3
MEAN_MOTION_DOT = .9834E-4
MEAN_MOTION_DDOT = 0

CCSDS_OMM_VERS = 2.0
CREATION_DATE  = 
ORIGINATOR     = 

OBJECT_NAME    = CZ-2D R/B
OBJECT_ID      = 2025-227B
CENTER_NAME    = EARTH
REF_FRAME      = TEME
TIME_SYSTEM    = UTC
MEAN_ELEMENT_THEORY = SGP/SGP4

EPOCH          = 2025-11-03T19:40:00.369408
MEAN_MOTION    = 15.27478505
ECCENTRICITY   = .0021341
INCLINATION    = 80.1551
RA_OF_ASC_NODE = 73.9142
ARG_OF_PERICENTER = 324.5401
MEAN_ANOMALY   = 35.4410

EPHEMERIS_TYPE = 0
CLASSIFICATION_TYPE = U
NORAD_CAT_ID   = 65946
ELEMENT_SET_NO = 999
REV_AT_EPOCH   = 327
BSTAR          = .41431E-3
MEAN_MOTION_DOT = .11236E-3
MEAN_MOTION_DDOT = 0

CCSDS_OMM_VERS = 2.0
CREATION_DATE  = 
ORIGINATOR     = 

OBJECT_NAME    = KUIPER-00101
OBJECT_ID      = 2025-228A
CENTER_NAME    = EARTH
REF_FRAME      = TEME
TIME_SYSTEM    = UTC
MEAN_ELEMENT_THEORY = SGP/SGP4

EPOCH          = 2025-11-03T18:54:11.657088
MEAN_MOTION    = 15.34861655
ECCENTRICITY   = .0005653
INCLINATION    = 51.8796
RA_OF_ASC_NODE = 208.2289
ARG_OF_PERICENTER = 208.8988
MEAN_ANOMALY   = 151.1685

EPHEMERIS_TYPE = 0
CLASSIFICATION_TYPE = U
NORAD_CAT_ID   = 65947
ELEMENT_SET_NO = 999
REV_AT_EPOCH   = 443
BSTAR          = .11046E-2
MEAN_MOTION_DOT = .37736E-3
MEAN_MOTION_DDOT = 0

CCSDS_OMM_VERS = 2.0
CREATION_DATE  = 
ORIGINATOR     = 

OBJECT_NAME    = KUIPER-00113
OBJECT_ID      = 2025-228B
CENTER_NAME    = EARTH
REF_FRAME      = TEME
TIME_SYSTEM    = UTC
MEAN_ELEMENT_THEORY = SGP/SGP4

EPOCH          = 2025-11-03T18:49:13.138176
MEAN_MOTION    = 15.35112347
ECCENTRICITY   = .0006229
INCLINATION    = 51.8806
RA_OF_ASC_NODE = 208.2089
ARG_OF_PERICENTER = 204.6248
MEAN_ANOMALY   = 155.4441

EPHEMERIS_TYPE = 0
CLASSIFICATION_TYPE = U
NORAD_CAT_ID   = 65948
ELEMENT_SET_NO = 999
REV_AT_EPOCH   = 443
BSTAR          = .57123E-3
MEAN_MOTION_DOT = .1944E-3
MEAN_MOTION_DDOT = 0

CCSDS_OMM_VERS = 2.0
CREATION_DATE  = 
ORIGINATOR     = 

OBJECT_NAME    = KUIPER-00117
OBJECT_ID      = 2025-228C
CENTER_NAME    = EARTH
REF_FRAME      = TEME
TIME_SYSTEM    = UTC
MEAN_ELEMENT_THEORY = SGP/SGP4

EPOCH          = 2025-11-03T18:50:02.971968
MEAN_MOTION    = 15.35064186
ECCENTRICITY   = .0005985
INCLINATION    = 51.8805
RA_OF_ASC_NODE = 208.2127
ARG_OF_PERICENTER = 204.9263
MEAN_ANOMALY   = 155.1435

EPHEMERIS_TYPE = 0
CLASSIFICATION_TYPE = U
NORAD_CAT_ID   = 65949
ELEMENT_SET_NO = 999
REV_AT_EPOCH   = 443
BSTAR          = .47665E-3
MEAN_MOTION_DOT = .16125E-3
MEAN_MOTION_DDOT = 0

CCSDS_OMM_VERS = 2.0
CREATION_DATE  = 
ORIGINATOR     = 

OBJECT_NAME    = KUIPER-00121
OBJECT_ID      = 2025-228D
CENTER_NAME    = EARTH
REF_FRAME      = TEME
TIME_SYSTEM    = UTC
MEAN_ELEMENT_THEORY = SGP/SGP4

EPOCH          = 2025-11-03T19:01:43.044384
MEAN_MOTION    = 15.34490470
ECCENTRICITY   = .0005582
INCLINATION    = 51.8811
RA_OF_ASC_NODE = 208.2686
ARG_OF_PERICENTER = 223.5138
MEAN_ANOMALY   = 136.5408

EPHEMERIS_TYPE = 0
CLASSIFICATION_TYPE = U
NORAD_CAT_ID   = 65950
ELEMENT_SET_NO = 999
REV_AT_EPOCH   = 443
BSTAR          = .77023E-3
MEAN_MOTION_DOT = .25844E-3
MEAN_MOTION_DDOT = 0

CCSDS_OMM_VERS = 2.0
CREATION_DATE  = 
ORIGINATOR     = 

OBJECT_NAME    = KUIPER-00122
OBJECT_ID      = 2025-228E
CENTER_NAME    = EARTH
REF_FRAME      = TEME
TIME_SYSTEM    = UTC
MEAN_ELEMENT_THEORY = SGP/SGP4

EPOCH          = 2025-11-03T20:00:03.000384
MEAN_MOTION    = 15.30933258
ECCENTRICITY   = .0006853
INCLINATION    = 51.8818
RA_OF_ASC_NODE = 208.1503
ARG_OF_PERICENTER = 235.1192
MEAN_ANOMALY   = 314.2912

EPHEMERIS_TYPE = 0
CLASSIFICATION_TYPE = U
NORAD_CAT_ID   = 65951
ELEMENT_SET_NO = 999
REV_AT_EPOCH   = 306
BSTAR          = -.2666E-1
MEAN_MOTION_DOT = -.753756E-2
MEAN_MOTION_DDOT = 0

CCSDS_OMM_VERS = 2.0
CREATION_DATE  = 
ORIGINATOR     = 

OBJECT_NAME    = KUIPER-00123
OBJECT_ID      = 2025-228F
CENTER_NAME    = EARTH
REF_FRAME      = TEME
TIME_SYSTEM    = UTC
MEAN_ELEMENT_THEORY = SGP/SGP4

EPOCH          = 2025-11-03T20:00:03.000384
MEAN_MOTION    = 15.29665242
ECCENTRICITY   = .000498
INCLINATION    = 51.8817
RA_OF_ASC_NODE = 208.1242
ARG_OF_PERICENTER = 227.2790
MEAN_ANOMALY   = 321.3417

EPHEMERIS_TYPE = 0
CLASSIFICATION_TYPE = U
NORAD_CAT_ID   = 65952
ELEMENT_SET_NO = 999
REV_AT_EPOCH   = 136
BSTAR          = .59703E-3
MEAN_MOTION_DOT = .17094E-3
MEAN_MOTION_DDOT = 0

CCSDS_OMM_VERS = 2.0
CREATION_DATE  = 
ORIGINATOR     = 

OBJECT_NAME    = KUIPER-00124
OBJECT_ID      = 2025-228G
CENTER_NAME    = EARTH
REF_FRAME      = TEME
TIME_SYSTEM    = UTC
MEAN_ELEMENT_THEORY = SGP/SGP4

EPOCH          = 2025-11-03T19:05:03.716160
MEAN_MOTION    = 15.34302843
ECCENTRICITY   = .0005553
INCLINATION    = 51.8806
RA_OF_ASC_NODE = 208.2814
ARG_OF_PERICENTER = 231.4696
MEAN_ANOMALY   = 128.5792

EPHEMERIS_TYPE = 0
CLASSIFICATION_TYPE = U
NORAD_CAT_ID   = 65953
ELEMENT_SET_NO = 999
REV_AT_EPOCH   = 443
BSTAR          = .8672E-3
MEAN_MOTION_DOT = .28983E-3
MEAN_MOTION_DDOT = 0

